{"type": "FeatureCollection", "features": [ {"type": "Feature", "properties": {"norad_id": 41335, "name": "SENTINEL-3A", "group": "resource", "lat": 56.74633201760263, "lon": -123.89894614288859, "alt_km": 796.5673797070094, "timestamp": "2025-12-03T13:52:09.222594+00:00", "meta": {"OBJECT_NAME": "SENTINEL-3A", "OBJECT_ID": "2016-011A", "EPOCH": "2025-12-03T08:14:57.420096", "MEAN_MOTION": 14.267407, "ECCENTRICITY": 9.948e-05, "INCLINATION": 98.622, "RA_OF_ASC_NODE": 42.4916, "ARG_OF_PERICENTER": 91.189, "MEAN_ANOMALY": 268.9404, "EPHEMERIS_TYPE": 0, "CLASSIFICATION_TYPE": "U", "NORAD_CAT_ID": 41335, "ELEMENT_SET_NO": 999, "REV_AT_EPOCH": 51013, "BSTAR": 0.00011692715, "MEAN_MOTION_DOT": 2.39e-06, "MEAN_MOTION_DDOT": 0}, "tle": {"line1": "1 41335U 16011A   25337.34372014  .00000239  00000+0  11693-3 0  9995", "line2": "2 41335  98.6220  42.4916 0000994  91.1890 268.9404 14.26740700510135"}}, "geometry": {"type": "Point", "coordinates": [-123.89894614288859, 56.74633201760263]}}, {"type": "Feature", "properties": {"norad_id": 41556, "name": "ZIYUAN 3-2 (ZY 3-2)", "group": "resource", "lat": -2.9130205293885534, "lon": 52.275201347450285, "alt_km": 502.79444369392786, "timestamp": "2025-12-03T13:52:09.222604+00:00", "meta": {"OBJECT_NAME": "ZIYUAN 3-2 (ZY 3-2)", "OBJECT_ID": "2016-033A", "EPOCH": "2025-12-03T09:08:46.430880", "MEAN_MOTION": 15.21283149, "ECCENTRICITY": 0.00124361, "INCLINATION": 97.4061, "RA_OF_ASC_NODE": 51.7024, "ARG_OF_PERICENTER": 285.6875, "MEAN_ANOMALY": 74.2989, "EPHEMERIS_TYPE": 0, "CLASSIFICATION_TYPE": "U", "NORAD_CAT_ID": 41556, "ELEMENT_SET_NO": 999, "REV_AT_EPOCH": 52821, "BSTAR": 0.00042662156, "MEAN_MOTION_DOT": 9.493e-05, "MEAN_MOTION_DDOT": 0}, "tle": {"line1": "1 41556U 16033A   25337.38109295  .00009493  00000+0  42662-3 0  9998", "line2": "2 41556  97.4061  51.7024 0012436 285.6875  74.2989 15.21283149528219"}}, "geometry": {"type": "Point", "coordinates": [52.275201347450285, -2.9130205293885534]}}, {"type": "Feature", "properties": {"norad_id": 41599, "name": "CARTOSAT-2C", "group": "resource", "lat": 12.200616580370577, "lon": 33.295133357645064, "alt_km": 508.51967277807853, "timestamp": "2025-12-03T13:52:09.222615+00:00", "meta": {"OBJECT_NAME": "CARTOSAT-2C", "OBJECT_ID": "2016-040A", "EPOCH": "2025-12-03T07:29:30.574752", "MEAN_MOTION": 15.19140873, "ECCENTRICITY": 0.00109496, "INCLINATION": 97.478, "RA_OF_ASC_NODE": 34.6596, "ARG_OF_PERICENTER": 93.6527, "MEAN_ANOMALY": 266.596, "EPHEMERIS_TYPE": 0, "CLASSIFICATION_TYPE": "U", "NORAD_CAT_ID": 41599, "ELEMENT_SET_NO": 999, "REV_AT_EPOCH": 52397, "BSTAR": 3.3596901e-05, "MEAN_MOTION_DOT": 6.38e-06, "MEAN_MOTION_DDOT": 0}, "tle": {"line1": "1 41599U 16040A   25337.31215943  .00000638  00000+0  33597-4 0  9994", "line2": "2 41599  97.4780  34.6596 0010949  93.6527 266.5960 15.19140873523972"}}, "geometry": {"type": "Point", "coordinates": [33.295133357645064, 12.200616580370577]}}, {"type": "Feature", "properties": {"norad_id": 41601, "name": "SKYSAT-C1", "group": "resource", "lat": -7.931184650172171, "lon": 16.088532553691177, "alt_km": 471.369180118847, "timestamp": "2025-12-03T13:52:09.222626+00:00", "meta": {"OBJECT_NAME": "SKYSAT-C1", "OBJECT_ID": "2016-040C", "EPOCH": "2025-12-03T01:21:56.872800", "MEAN_MOTION": 15.3231257, "ECCENTRICITY": 0.00033351, "INCLINATION": 96.984, "RA_OF_ASC_NODE": 14.6184, "ARG_OF_PERICENTER": 39.7719, "MEAN_ANOMALY": 320.3768, "EPHEMERIS_TYPE": 0, "CLASSIFICATION_TYPE": "U", "NORAD_CAT_ID": 41601, "ELEMENT_SET_NO": 999, "REV_AT_EPOCH": 52779, "BSTAR": 0.00041279852, "MEAN_MOTION_DOT": 0.00012816, "MEAN_MOTION_DDOT": 0}, "tle": {"line1": "1 41601U 16040C   25337.05690825  .00012816  00000+0  41280-3 0  9993", "line2": "2 41601  96.9840  14.6184 0003335  39.7719 320.3768 15.32312570527792"}}, "geometry": {"type": "Point", "coordinates": [16.088532553691177, -7.931184650172171]}}, {"type": "Feature", "properties": {"norad_id": 41603, "name": "LAPAN-A3", "group": "resource", "lat": 12.08701031789601, "lon": 157.00756547503576, "alt_km": 479.92000235714386, "timestamp": "2025-12-03T13:52:09.222636+00:00", "meta": {"OBJECT_NAME": "LAPAN-A3", "OBJECT_ID": "2016-040E", "EPOCH": "2025-12-03T08:26:06.009216", "MEAN_MOTION": 15.31433547, "ECCENTRICITY": 0.00108483, "INCLINATION": 97.1422, "RA_OF_ASC_NODE": 335.2507, "ARG_OF_PERICENTER": 8.4266, "MEAN_ANOMALY": 351.7156, "EPHEMERIS_TYPE": 0, "CLASSIFICATION_TYPE": "U", "NORAD_CAT_ID": 41603, "ELEMENT_SET_NO": 999, "REV_AT_EPOCH": 52482, "BSTAR": 0.00017642471, "MEAN_MOTION_DOT": 5.29e-05, "MEAN_MOTION_DDOT": 0}, "tle": {"line1": "1 41603U 16040E   25337.35145844  .00005290  00000+0  17642-3 0  9997", "line2": "2 41603  97.1422 335.2507 0010848   8.4266 351.7156 15.31433547524828"}}, "geometry": {"type": "Point", "coordinates": [157.00756547503576, 12.08701031789601]}}, {"type": "Feature", "properties": {"norad_id": 41604, "name": "BIROS", "group": "resource", "lat": -62.64325706359907, "lon": 22.551109783113176, "alt_km": 321.9297182996497, "timestamp": "2025-12-03T13:52:09.222647+00:00", "meta": {"OBJECT_NAME": "BIROS", "OBJECT_ID": "2016-040F", "EPOCH": "2025-12-03T08:04:45.191424", "MEAN_MOTION": 15.85840463, "ECCENTRICITY": 0.00026414, "INCLINATION": 97.0708, "RA_OF_ASC_NODE": 8.4199, "ARG_OF_PERICENTER": 174.4509, "MEAN_ANOMALY": 185.6792, "EPHEMERIS_TYPE": 0, "CLASSIFICATION_TYPE": "U", "NORAD_CAT_ID": 41604, "ELEMENT_SET_NO": 999, "REV_AT_EPOCH": 52723, "BSTAR": 0.00068583473, "MEAN_MOTION_DOT": 0.00169306, "MEAN_MOTION_DDOT": 0}, "tle": {"line1": "1 41604U 16040F   25337.33663416  .00169306  00000+0  68583-3 0  9995", "line2": "2 41604  97.0708   8.4199 0002641 174.4509 185.6792 15.85840463527233"}}, "geometry": {"type": "Point", "coordinates": [22.551109783113176, -62.64325706359907]}}, {"type": "Feature", "properties": {"norad_id": 41727, "name": "GAOFEN-3", "group": "resource", "lat": 4.361622338147726, "lon": -17.34225281723723, "alt_km": 753.1491704486671, "timestamp": "2025-12-03T13:52:09.222658+00:00", "meta": {"OBJECT_NAME": "GAOFEN-3", "OBJECT_ID": "2016-049A", "EPOCH": "2025-12-03T07:11:18.694752", "MEAN_MOTION": 14.42209634, "ECCENTRICITY": 0.00015957, "INCLINATION": 98.4041, "RA_OF_ASC_NODE": 343.0297, "ARG_OF_PERICENTER": 73.3962, "MEAN_ANOMALY": 286.7403, "EPHEMERIS_TYPE": 0, "CLASSIFICATION_TYPE": "U", "NORAD_CAT_ID": 41727, "ELEMENT_SET_NO": 999, "REV_AT_EPOCH": 49041, "BSTAR": 4.33792e-06, "MEAN_MOTION_DOT": -2.9e-07, "MEAN_MOTION_DDOT": 0}, "tle": {"line1": "1 41727U 16049A   25337.29952193 -.00000029  00000+0  43379-5 0  9993", "line2": "2 41727  98.4041 343.0297 0001595  73.3962 286.7403 14.42209634490410"}}, "geometry": {"type": "Point", "coordinates": [-17.34225281723723, 4.361622338147726]}}, {"type": "Feature", "properties": {"norad_id": 41771, "name": "SKYSAT-C4", "group": "resource", "lat": -28.26623711036308, "lon": 6.96856979932964, "alt_km": 447.0253578680622, "timestamp": "2025-12-03T13:52:09.222668+00:00", "meta": {"OBJECT_NAME": "SKYSAT-C4", "OBJECT_ID": "2016-058B", "EPOCH": "2025-12-03T07:45:43.626240", "MEAN_MOTION": 15.41830666, "ECCENTRICITY": 7.248e-05, "INCLINATION": 96.9384, "RA_OF_ASC_NODE": 2.9722, "ARG_OF_PERICENTER": 115.0599, "MEAN_ANOMALY": 245.0725, "EPHEMERIS_TYPE": 0, "CLASSIFICATION_TYPE": "U", "NORAD_CAT_ID": 41771, "ELEMENT_SET_NO": 999, "REV_AT_EPOCH": 51522, "BSTAR": 0.00043666707, "MEAN_MOTION_DOT": 0.00018449, "MEAN_MOTION_DDOT": 0}, "tle": {"line1": "1 41771U 16058B   25337.32342160  .00018449  00000+0  43667-3 0  9995", "line2": "2 41771  96.9384   2.9722 0000724 115.0599 245.0725 15.41830666515226"}}, "geometry": {"type": "Point", "coordinates": [6.96856979932964, -28.26623711036308]}}, {"type": "Feature", "properties": {"norad_id": 41772, "name": "SKYSAT-C5", "group": "resource", "lat": 71.4196878311288, "lon": -136.6133156552573, "alt_km": 451.03663100334416, "timestamp": "2025-12-03T13:52:09.222678+00:00", "meta": {"OBJECT_NAME": "SKYSAT-C5", "OBJECT_ID": "2016-058C", "EPOCH": "2025-12-03T02:27:18.996480", "MEAN_MOTION": 15.35381437, "ECCENTRICITY": 0.00026906, "INCLINATION": 97.0777, "RA_OF_ASC_NODE": 21.2377, "ARG_OF_PERICENTER": 130.7295, "MEAN_ANOMALY": 229.4184, "EPHEMERIS_TYPE": 0, "CLASSIFICATION_TYPE": "U", "NORAD_CAT_ID": 41772, "ELEMENT_SET_NO": 999, "REV_AT_EPOCH": 51368, "BSTAR": 0.0018731044, "MEAN_MOTION_DOT": 0.00064768, "MEAN_MOTION_DDOT": 0}, "tle": {"line1": "1 41772U 16058C   25337.10230320  .00064768  00000+0  18731-2 0  9994", "line2": "2 41772  97.0777  21.2377 0002690 130.7295 229.4184 15.35381437513689"}}, "geometry": {"type": "Point", "coordinates": [-136.6133156552573, 71.4196878311288]}}, {"type": "Feature", "properties": {"norad_id": 41773, "name": "SKYSAT-C2", "group": "resource", "lat": 58.15018943055538, "lon": -8.973967865700523, "alt_km": 446.1126728260924, "timestamp": "2025-12-03T13:52:09.222689+00:00", "meta": {"OBJECT_NAME": "SKYSAT-C2", "OBJECT_ID": "2016-058D", "EPOCH": "2025-12-03T01:06:49.369536", "MEAN_MOTION": 15.36929314, "ECCENTRICITY": 0.00051007, "INCLINATION": 97.0371, "RA_OF_ASC_NODE": 1.9867, "ARG_OF_PERICENTER": 58.7522, "MEAN_ANOMALY": 301.4222, "EPHEMERIS_TYPE": 0, "CLASSIFICATION_TYPE": "U", "NORAD_CAT_ID": 41773, "ELEMENT_SET_NO": 999, "REV_AT_EPOCH": 51487, "BSTAR": 0.00040683044, "MEAN_MOTION_DOT": 0.00014631, "MEAN_MOTION_DDOT": 0}, "tle": {"line1": "1 41773U 16058D   25337.04640474  .00014631  00000+0  40683-3 0  9999", "line2": "2 41773  97.0371   1.9867 0005100  58.7522 301.4222 15.36929314514879"}}, "geometry": {"type": "Point", "coordinates": [-8.973967865700523, 58.15018943055538]}}]}